*******************************************************************************
JPL/HORIZONS                  1 Ceres (A801 AA)            2022-Aug-25 21:07:40
Rec #:       1 (+COV) Soln.date: 2021-Apr-13_11:04:44   # obs: 1075 (1995-2021)
 
IAU76/J2000 helio. ecliptic osc. elements (au, days, deg., period=Julian yrs):
 
  EPOCH=  2458849.5 ! 2020-Jan-01.00 (TDB)         Residual RMS= .24563
   EC= .07687465013145245  QR= 2.556401146697176   TP= 2458240.1791309435
   OM= 80.3011901917491    W=  73.80896808746482   IN= 10.59127767086216
   A= 2.769289292143484    MA= 130.3159688200986   ADIST= 2.982177437589792
   PER= 4.60851            N= .213870839           ANGMOM= .028541613
   DAN= 2.69515            DDN= 2.81323            L= 153.8445988
   B= 10.1666388           MOID= 1.59231997        TP= 2018-May-01.6791309435
 
Asteroid physical parameters (km, seconds, rotational period in hours):
   GM= 62.6284             RAD= 469.7              ROTPER= 9.07417
   H= 3.33                 G= .120                 B-V= .713
                           ALBEDO= .090            STYP= C
 
ASTEROID comments: 
1: soln ref.= JPL#48, OCC=0           radar(60 delay, 0 Dop.)
2: source=ORB
*******************************************************************************


*******************************************************************************
Ephemeris / WWW_USER Thu Aug 25 21:07:40 2022 Pasadena, USA      / Horizons
*******************************************************************************
Target body name: 1 Ceres (A801 AA)               {source: JPL#48}
Center body name: Solar System Barycenter (0)     {source: DE441}
Center-site name: BODY CENTER
*******************************************************************************
Start time      : A.D. 2022-Aug-25 00:00:00.0000 TDB
Stop  time      : A.D. 2022-Sep-24 00:00:00.0000 TDB
Step-size       : 1440 minutes
*******************************************************************************
Center geodetic : 0.00000000,0.00000000,0.0000000 {E-lon(deg),Lat(deg),Alt(km)}
Center cylindric: 0.00000000,0.00000000,0.0000000 {E-lon(deg),Dxy(km),Dz(km)}
Center radii    : (undefined)                                                  
Small perturbers: Yes                             {source: SB441-N16}
Output units    : KM-S
Output type     : GEOMETRIC cartesian states
Output format   : 3 (position, velocity, LT, range, range-rate)
Reference frame : Ecliptic of J2000.0
*******************************************************************************
Initial IAU76/J2000 heliocentric ecliptic osculating elements (au, days, deg.):
  EPOCH=  2458849.5 ! 2020-Jan-01.00 (TDB)         Residual RMS= .24563        
   EC= .07687465013145245  QR= 2.556401146697176   TP= 2458240.1791309435      
   OM= 80.3011901917491    W=  73.80896808746482   IN= 10.59127767086216       
  Equivalent ICRF heliocentric cartesian coordinates (au, au/d):
   X= 1.007608869613381E+00  Y=-2.390064275223502E+00  Z=-1.332124522752402E+00
  VX= 9.201724467227128E-03 VY= 3.370381135398406E-03 VZ=-2.850337057661093E-04
Asteroid physical parameters (km, seconds, rotational period in hours):        
   GM= 62.6284             RAD= 469.7              ROTPER= 9.07417             
   H= 3.33                 G= .120                 B-V= .713                   
                           ALBEDO= .090            STYP= C                     
*******************************************************************************
JDTDB
   X     Y     Z
   VX    VY    VZ
   LT    RG    RR
*******************************************************************************
$$SOE
2459837.500000000 = A.D. 2022-Sep-15 00:00:00.0000 TDB 
 X =-2.576586744293120E+08 Y = 2.794004429331993E+08 Z = 5.606854742954881E+07
 VX=-1.356776772713727E+01 VY=-1.357110518993753E+01 VZ= 2.070990306607422E+00
 LT= 1.281495265207300E+03 RG= 3.841826154718583E+08 RR=-4.680126797762801E-01
2459838.500000000 = A.D. 2022-Sep-16 00:00:00.0000 TDB 
 X =-2.588286683077193E+08 Y = 2.782254433599467E+08 Z = 5.624698687941800E+07
 VX=-1.351538120673963E+01 VY=-1.362792230931792E+01 VZ= 2.059545808621572E+00
 LT= 1.281361194319785E+03 RG= 3.841424220309438E+08 RR=-4.623893402845397E-01
2459839.500000000 = A.D. 2022-Sep-17 00:00:00.0000 TDB 
 X =-2.599941249378109E+08 Y = 2.770455443190652E+08 Z = 5.642443578968711E+07
 VX=-1.346273899130081E+01 VY=-1.368451856372065E+01 VZ= 2.048061185978687E+00
 LT= 1.281228745543689E+03 RG= 3.841027148867991E+08 RR=-4.567558292084431E-01
2459840.500000000 = A.D. 2022-Sep-18 00:00:00.0000 TDB 
 X =-2.611550222692271E+08 Y = 2.758607649525073E+08 Z = 5.660089070314035E+07
 VX=-1.340984204736710E+01 VY=-1.374089258316806E+01 VZ= 2.036536660092895E+00
 LT= 1.281097921793921E+03 RG= 3.840634949132913E+08 RR=-4.511122613833969E-01
2459841.500000000 = A.D. 2022-Sep-19 00:00:00.0000 TDB 
 X =-2.623113383354949E+08 Y = 2.746711245203779E+08 Z = 5.677634818175487E+07
 VX=-1.335669135021337E+01 VY=-1.379704300263706E+01 VZ= 2.024972453828973E+00
 LT= 1.280968725952228E+03 RG= 3.840247629743469E+08 RR=-4.454587520860058E-01
2459842.500000000 = A.D. 2022-Sep-20 00:00:00.0000 TDB 
 X =-2.634630512547814E+08 Y = 2.734766424005038E+08 Z = 5.695080480682577E+07
 VX=-1.330328788381497E+01 VY=-1.385296846212880E+01 VZ= 2.013368791494978E+00
 LT= 1.280841160867073E+03 RG= 3.839865199239132E+08 RR=-4.397954170299452E-01
2459843.500000000 = A.D. 2022-Sep-21 00:00:00.0000 TDB 
 X =-2.646101392306440E+08 Y = 2.722773380879955E+08 Z = 5.712425717909046E+07
 VX=-1.324963264082346E+01 VY=-1.390866760674323E+01 VZ= 2.001725898834845E+00
 LT= 1.280715229353506E+03 RG= 3.839487666059214E+08 RR=-4.341223723622064E-01
2459844.500000000 = A.D. 2022-Sep-22 00:00:00.0000 TDB 
 X =-2.657525805527788E+08 Y = 2.710732311948045E+08 Z = 5.729670191885221E+07
 VX=-1.319572662253168E+01 VY=-1.396413908674383E+01 VZ= 1.990044003020711E+00
 LT= 1.280590934193044E+03 RG= 3.839115038542488E+08 RR=-4.284397346594961E-01
2459845.500000000 = A.D. 2022-Sep-23 00:00:00.0000 TDB 
 X =-2.668903535977661E+08 Y = 2.698643414492737E+08 Z = 5.746813566610368E+07
 VX=-1.314157083885167E+01 VY=-1.401938155763310E+01 VZ= 1.978323332645509E+00
 LT= 1.280468278133543E+03 RG= 3.838747324926825E+08 RR=-4.227476209227707E-01
2459846.500000000 = A.D. 2022-Sep-24 00:00:00.0000 TDB 
 X =-2.680234368298138E+08 Y = 2.686506886956817E+08 Z = 5.763855508064882E+07
 VX=-1.308716630828337E+01 VY=-1.407439368022136E+01 VZ= 1.966564117715165E+00
 LT= 1.280347263889080E+03 RG= 3.838384533348818E+08 RR=-4.170461485732091E-01
